*******************************************************************************
Ephemeris / WWW_USER Mon Mar 24 07:40:06 2025 Pasadena, USA      / Horizons    
*******************************************************************************
Target body name: (2017 SN16)                     {source: JPL#20}
Center body name: Earth (399)                     {source: DE441}
Center-site name: Mauna Kea
*******************************************************************************
Start time      : A.D. 2019-Jan-16 04:13:00.0000 UT      
Stop  time      : A.D. 2019-Jan-16 16:49:00.0000 UT      
Step-size       : 1 minutes
*******************************************************************************
Target pole/equ : undefined
Target radii    : undefined                                                    
Center geodetic : 204.5278, 19.8260847, 4.21024   {E-lon(deg),Lat(deg),Alt(km)}
Center cylindric: 204.5278, 6006.35451, 2151.0229 {E-lon(deg),Dxy(km),Dz(km)}
Center pole/equ : ITRF93                          {East-longitude positive}
Center radii    : 6378.137, 6378.137, 6356.752 km {Equator_a, b, pole_c}       
Target primary  : Sun
Vis. interferer : MOON (R_eq= 1737.400) km        {source: DE441}
Rel. light bend : Sun                             {source: DE441}
Rel. lght bnd GM: 1.3271E+11 km^3/s^2                                          
Small-body perts: Yes                             {source: SB441-N16}
Atmos refraction: NO (AIRLESS)
RA format       : HMS
Time format     : CAL 
Calendar mode   : Mixed Julian/Gregorian
RTS-only print  : NO       
EOP file        : eop.250321.p250617                                           
EOP coverage    : DATA-BASED 1962-JAN-20 TO 2025-MAR-21. PREDICTS-> 2025-JUN-16
Units conversion: 1 au= 149597870.700 km, c= 299792.458 km/s, 1 day= 86400.0 s 
Table cut-offs 1: Elevation (-90.0deg=NO ),Airmass (>38.000=NO), Daylight (YES)
Table cut-offs 2: Solar elongation (  0.0,180.0=NO ),Local Hour Angle( 0.0=NO )
Table cut-offs 3: RA/DEC angular rate (     0.0=NO )                           
*******************************************************************************
Initial IAU76/J2000 heliocentric ecliptic osculating elements (au, days, deg.):
  EPOCH=  2458305.5 ! 2018-Jul-06.00 (TDB)         Residual RMS= .23751        
   EC= .1454884975659386   QR= .8682464985612274   TP= 2458145.5722438502      
   OM= 2.759719470837934   W=  137.1017088998531   IN= 13.38264682844635       
  Equivalent ICRF heliocentric cartesian coordinates (au, au/d):
   X= 5.756755401261899E-01  Y=-7.953424559592890E-01  Z=-6.031561894536019E-01
  VX= 1.332076113263395E-02 VY= 5.454663564585547E-03 VZ= 3.896229736425836E-03
Asteroid physical parameters (km, seconds, rotational period in hours):        
   GM= n.a.                RAD= n.a.               ROTPER= n.a.                
   H= 23.34                G= .150                 B-V= n.a.                   
                           ALBEDO= n.a.            STYP= n.a.                  
*******************************************************************************
 Date__(UT)__HR:MN     R.A._________(ICRF)_________DEC
******************************************************
$$SOE
 2019-Jan-16 16:31 N   19 21 47.078534 +35 00 58.64498
 2019-Jan-16 16:32 N   19 21 46.993900 +35 00 57.61404
 2019-Jan-16 16:33 N   19 21 46.909210 +35 00 56.58299
 2019-Jan-16 16:34 N   19 21 46.824463 +35 00 55.55183
 2019-Jan-16 16:35 N   19 21 46.739661 +35 00 54.52055
 2019-Jan-16 16:36 C   19 21 46.654802 +35 00 53.48915
 2019-Jan-16 16:37 C   19 21 46.569887 +35 00 52.45764
 2019-Jan-16 16:38 C   19 21 46.484917 +35 00 51.42600
 2019-Jan-16 16:39 C   19 21 46.399890 +35 00 50.39425
 2019-Jan-16 16:40 C   19 21 46.314808 +35 00 49.36237
 2019-Jan-16 16:41 C   19 21 46.229669 +35 00 48.33036
 2019-Jan-16 16:42 C   19 21 46.144475 +35 00 47.29823
 2019-Jan-16 16:43 C   19 21 46.059225 +35 00 46.26597
 2019-Jan-16 16:44 C   19 21 45.973920 +35 00 45.23357
 2019-Jan-16 16:45 C   19 21 45.888559 +35 00 44.20105
 2019-Jan-16 16:46 C   19 21 45.803142 +35 00 43.16839
 2019-Jan-16 16:47 C   19 21 45.717669 +35 00 42.13560
 2019-Jan-16 16:48 C   19 21 45.632141 +35 00 41.10266
 2019-Jan-16 16:49 C   19 21 45.546558 +35 00 40.06959
